{
  "norad_id": 68333,
  "name": "STARLINK-37180",
  "history": [
    {
      "epoch": "2026-03-31T16:00:01.999584Z",
      "apogee_km": 328.83965760577394,
      "perigee_km": 327.7706507264011,
      "latitude_deg": -52.153249568763194,
      "longitude_deg": 77.09559928832823,
      "height_km": 346.70397153168506,
      "semi_major_axis_km": 6706.442154166088,
      "eccentricity": 7.97e-05,
      "inclination_deg": 53.1596,
      "raan_deg": 252.6461,
      "arg_perigee_deg": 27.5459,
      "mean_anomaly_deg": 232.3653,
      "mean_motion_rev_day": 15.80754721
    },
    {
      "epoch": "2026-04-02T18:29:39.596352Z",
      "apogee_km": 331.86948731829034,
      "perigee_km": 325.50739270589474,
      "latitude_deg": -4.869046415657884e-06,
      "longitude_deg": 133.56742032354003,
      "height_km": 330.5025315456509,
      "semi_major_axis_km": 6706.825440012092,
      "eccentricity": 0.0004743,
      "inclination_deg": 53.1588,
      "raan_deg": 242.0969,
      "arg_perigee_deg": 106.4687,
      "mean_anomaly_deg": 253.6857,
      "mean_motion_rev_day": 15.80619216
    },
    {
      "epoch": "2026-04-02T18:29:39.597216Z",
      "apogee_km": 331.86935318178075,
      "perigee_km": 325.5075268424034,
      "latitude_deg": -3.112933997364532e-06,
      "longitude_deg": 133.5674180219971,
      "height_km": 330.5024935225087,
      "semi_major_axis_km": 6706.825440012092,
      "eccentricity": 0.00047428,
      "inclination_deg": 53.1588,
      "raan_deg": 242.0969,
      "arg_perigee_deg": 106.4687,
      "mean_anomaly_deg": 253.6857,
      "mean_motion_rev_day": 15.80619216
    },
    {
      "epoch": "2026-04-03T18:46:09.858720Z",
      "apogee_km": 328.5665731099316,
      "perigee_km": 326.89681180550906,
      "latitude_deg": 2.5811183886402108e-05,
      "longitude_deg": 123.37900826255311,
      "height_km": 329.33428345952444,
      "semi_major_axis_km": 6705.86869245772,
      "eccentricity": 0.0001245,
      "inclination_deg": 53.1597,
      "raan_deg": 237.0315,
      "arg_perigee_deg": 145.0278,
      "mean_anomaly_deg": 215.0827,
      "mean_motion_rev_day": 15.80957496
    },
    {
      "epoch": "2026-04-04T19:02:43.673856Z",
      "apogee_km": 328.35033961996487,
      "perigee_km": 327.4772118089659,
      "latitude_deg": 2.4184922074353114e-05,
      "longitude_deg": 113.17302753195511,
      "height_km": 328.6820917832433,
      "semi_major_axis_km": 6706.050775714465,
      "eccentricity": 6.51e-05,
      "inclination_deg": 53.1602,
      "raan_deg": 231.9634,
      "arg_perigee_deg": 69.8584,
      "mean_anomaly_deg": 290.2509,
      "mean_motion_rev_day": 15.80893107
    },
    {
      "epoch": "2026-04-05T14:46:11.283168Z",
      "apogee_km": 328.50658460748764,
      "perigee_km": 326.66854550420703,
      "latitude_deg": 1.2084189396596769e-05,
      "longitude_deg": 172.37912872675474,
      "height_km": 327.73069553511493,
      "semi_major_axis_km": 6705.724565055847,
      "eccentricity": 0.00013705,
      "inclination_deg": 53.1597,
      "raan_deg": 227.8446,
      "arg_perigee_deg": 32.4695,
      "mean_anomaly_deg": 327.6412,
      "mean_motion_rev_day": 15.81008466
    },
    {
      "epoch": "2026-04-05T19:19:17.385312Z",
      "apogee_km": 328.07748318142876,
      "perigee_km": 327.3250881257791,
      "latitude_deg": 3.396703363698362e-06,
      "longitude_deg": 102.96586484219134,
      "height_km": 328.3059220862478,
      "semi_major_axis_km": 6705.838285653604,
      "eccentricity": 5.61e-05,
      "inclination_deg": 53.1596,
      "raan_deg": 226.8937,
      "arg_perigee_deg": 33.3198,
      "mean_anomaly_deg": 326.786,
      "mean_motion_rev_day": 15.80968249
    },
    {
      "epoch": "2026-04-06T04:00:05.000256Z",
      "apogee_km": 328.52530690713957,
      "perigee_km": 327.5266251182411,
      "latitude_deg": -52.068494173948515,
      "longitude_deg": -136.47691736726742,
      "height_km": 346.40505887019464,
      "semi_major_axis_km": 6706.16296601269,
      "eccentricity": 7.446e-05,
      "inclination_deg": 53.1588,
      "raan_deg": 225.0813,
      "arg_perigee_deg": 32.4036,
      "mean_anomaly_deg": 227.1419,
      "mean_motion_rev_day": 15.80853436
    },
    {
      "epoch": "2026-04-07T16:50:24.327744Z",
      "apogee_km": 329.68241035124447,
      "perigee_km": 326.8308517793157,
      "latitude_deg": -5.876851307640034e-06,
      "longitude_deg": 128.8134439696182,
      "height_km": 328.08256334215156,
      "semi_major_axis_km": 6706.39363106528,
      "eccentricity": 0.0002126,
      "inclination_deg": 53.1582,
      "raan_deg": 217.3896,
      "arg_perigee_deg": 40.0468,
      "mean_anomaly_deg": 320.0711,
      "mean_motion_rev_day": 15.80771877
    },
    {
      "epoch": "2026-04-07T16:50:24.328608Z",
      "apogee_km": 329.6825444791175,
      "perigee_km": 326.8307176514427,
      "latitude_deg": -7.062365310765252e-06,
      "longitude_deg": 128.81343947654048,
      "height_km": 328.0824606664481,
      "semi_major_axis_km": 6706.39363106528,
      "eccentricity": 0.00021262,
      "inclination_deg": 53.1582,
      "raan_deg": 217.3896,
      "arg_perigee_deg": 40.0468,
      "mean_anomaly_deg": 320.0711,
      "mean_motion_rev_day": 15.80771877
    }
  ]
}